ONEWEB-0158             
1 48054U 21025N   25142.26107158 -.00000052  00000+0 -17744-3 0  9999
2 48054  87.8991  37.8933 0001925  75.1894 284.9448 13.13471192202318
ONEWEB-0157             
1 48055U 21025P   25143.12442473 -.00000222  00000+0 -64348-3 0  9999
2 48055  87.8988  37.7332 0002270  87.6489 272.4899 13.13472063202375
ONEWEB-0162             
1 48056U 21025Q   25142.79588581 -.00000042  00000+0 -14992-3 0  9993
2 48056  87.8990  37.7966 0001928  79.6754 280.4593 13.13469801202272
ONEWEB-0155             
1 48057U 21025R   25142.26953609 -.00000237  00000+0 -68472-3 0  9991
2 48057  87.8988  37.9094 0001848  86.4752 273.6588 13.13471402202367
ONEWEB-0149             
1 48058U 21025S   25142.44390700 -.00000065  00000+0 -21214-3 0  9991
2 48058  87.8987  37.8699 0002020  75.2081 284.9272 13.13471516202193
ONEWEB-0148             
1 48059U 21025T   25142.63518760  .00000096  00000+0  22738-3 0  9995
2 48059  87.8993  37.8537 0002511  74.4232 285.7174 13.13471318202343
ONEWEB-0160             
1 48060U 21025U   25142.27123387 -.00000242  00000+0 -69768-3 0  9993
2 48060  87.8993  37.9229 0001249  57.9102 302.2148 13.13471382202249
ONEWEB-0163             
1 48061U 21025V   25142.40835172  .00000026  00000+0  37528-4 0  9999
2 48061  87.8990  37.8781 0002053  85.9237 274.2127 13.13467227202386
